SHIYAN-13 (SY-13)       
1 51102U 22004A   22046.19593652  .00004050  00000+0  19347-3 0  9996
2 51102  98.6717 110.2452 0652105  61.4274 305.0940 14.19639182  4130
CZ-2D R/B               
1 51103U 22004B   22045.76423482  .00003689  00000+0  17435-3 0  9995
2 51103  98.6719 109.8369 0651528  62.3842 304.1937 14.20078420  4032
STARLINK-3366           
1 51104U 22005A   22046.25001157  .00064052  00000+0  45785-3 0  9993
2 51104  53.2172 139.8519 0002184  17.4044 208.3227 15.73171427  5607
STARLINK-3350           
1 51105U 22005B   22046.25001157  .00065272  00000+0  46631-3 0  9990
2 51105  53.2164 139.8641 0002275  18.6744 200.1320 15.73176689  5605
STARLINK-3176           
1 51106U 22005C   22045.83334491  .00016951  00000+0  12494-3 0  9994
2 51106  53.2157 141.9220 0002734  22.9392 358.5789 15.73200383  3707
STARLINK-3368           
1 51107U 22005D   22045.83334491 -.00041269  00000+0 -28999-3 0  9994
2 51107  53.2154 141.9300 0002480  23.8313 353.1058 15.73281383  3704
STARLINK-3362           
1 51108U 22005E   22046.25001157 -.00046813  00000+0 -33036-3 0  9990
2 51108  53.2165 139.8641 0002304  25.9207 193.5224 15.73239599  5593
STARLINK-3358           
1 51109U 22005F   22046.25001157  .00014653  00000+0  10855-3 0  9990
2 51109  53.2165 139.1232 0002189  15.3741 199.8872 15.73218931  5618
STARLINK-3344           
1 51110U 22005G   22046.25001157 -.00021291  00000+0 -14750-3 0  9998
2 51110  53.2165 139.8609 0002448  19.8249 200.9431 15.73219952  5603
STARLINK-3173           
1 51111U 22005H   22045.83334491 -.00048891  00000+0 -34455-3 0  9991
2 51111  53.2159 141.9156 0002902  21.8228   2.0685 15.73287707  3707
STARLINK-3374           
1 51112U 22005J   22046.25001157  .00041685  00000+0  30024-3 0  9999
2 51112  53.2160 139.8597 0002388  14.6587 206.7580 15.73175710  5609
STARLINK-3372           
1 51113U 22005K   22045.83334491 -.00034408  00000+0 -24146-3 0  9998
2 51113  53.2162 141.9191 0002641  22.2438 359.8580 15.73221359  3708
STARLINK-3375           
1 51114U 22005L   22046.25001157 -.00064056  00000+0 -45483-3 0  9995
2 51114  53.2166 139.8626 0002376  17.6006 202.5820 15.73228206  5606
STARLINK-3397           
1 51115U 22005M   22045.83334491 -.00076696  00000+0 -54469-3 0  9996
2 51115  53.2161 141.9164 0002842  25.3629 357.9070 15.73293509  3707
STARLINK-3243           
1 51116U 22005N   22046.25001157 -.00026450  00000+0 -18441-3 0  9997
2 51116  53.2169 139.8589 0002327  21.9048 200.1348 15.73223439  5601
STARLINK-3391           
1 51117U 22005P   22046.25001157 -.00049422  00000+0 -34906-3 0  9996
2 51117  53.2165 139.8482 0002499  19.3637 207.6373 15.73243119  5602
STARLINK-3394           
1 51118U 22005Q   22046.25001157 -.00042608  00000+0 -30052-3 0  9994
2 51118  53.2173 139.8567 0002583  20.7613 203.2016 15.73208616  5609
STARLINK-3390           
1 51119U 22005R   22046.25001157 -.00052331  00000+0 -37005-3 0  9994
2 51119  53.2177 139.8453 0002437  31.3352 196.3105 15.73240004  5602
STARLINK-3398           
1 51120U 22005S   22046.25001157 -.00001968  00000+0 -95871-5 0  9993
2 51120  53.2174 139.8238 0002670  32.0058 196.7745 15.73205878  5606
STARLINK-3399           
1 51121U 22005T   22045.83334491  .00033900  00000+0  24534-3 0  9992
2 51121  53.2159 141.9129 0002850  13.0446  12.2171 15.73162973  3705
STARLINK-3373           
1 51122U 22005U   22045.83334491  .00020121  00000+0  14742-3 0  9994
2 51122  53.2158 141.9098 0002583  23.7468   3.3634 15.73201674  3702
STARLINK-3392           
1 51123U 22005V   22046.25001157  .00036140  00000+0  26075-3 0  9992
2 51123  53.2168 139.8422 0002348  18.7936 210.7024 15.73203746  5570
STARLINK-3389           
1 51124U 22005W   22045.83334491  .00031921  00000+0  23144-3 0  9992
2 51124  53.2160 141.9054 0002661  12.7829  16.2578 15.73152542  3704
STARLINK-3387           
1 51125U 22005X   22046.25001157  .00003892  00000+0  32083-4 0  9999
2 51125  53.2170 139.8372 0002260  26.0171 205.9370 15.73246113  5604
STARLINK-3386           
1 51126U 22005Y   22045.83334491 -.00086661  00000+0 -61728-3 0  9997
2 51126  53.2164 141.9040 0002590  19.8534   9.8144 15.73275200  3701
STARLINK-3370           
1 51127U 22005Z   22045.83334491  .00030816  00000+0  22335-3 0  9998
2 51127  53.2171 141.8997 0002796  16.4126  13.8391 15.73179698  3701
STARLINK-3400           
1 51128U 22005AA  22045.83334491 -.00038806  00000+0 -27293-3 0  9996
2 51128  53.2160 141.8932 0002689  15.8725  18.8267 15.73229648  3706
STARLINK-3396           
1 51129U 22005AB  22043.54269744 -.00291304  00000+0 -17327-2 0  9991
2 51129  53.2211 151.7729 0001904  27.0980 333.0141 15.78038094  4077
STARLINK-3395           
1 51130U 22005AC  22045.83334491  .00022894  00000+0  16707-3 0  9995
2 51130  53.2159 141.8994 0002650  19.8378  11.7380 15.73201324  3700
STARLINK-3388           
1 51131U 22005AD  22045.83334491 -.00065349  00000+0 -46458-3 0  9996
2 51131  53.2173 141.8937 0002548  24.9085   8.5639 15.73206852  3704
STARLINK-3393           
1 51132U 22005AE  22045.83334491 -.00097224  00000+0 -69416-3 0  9993
2 51132  53.2171 141.8985 0002626  14.6924  18.1359 15.73267288  3707
STARLINK-3356           
1 51133U 22005AF  22045.83334491  .00032823  00000+0  23749-3 0  9995
2 51133  53.2172 141.8890 0002718  17.7783  17.5588 15.73185579  3702
STARLINK-3183           
1 51134U 22005AG  22045.83334491 -.00039069  00000+0 -27483-3 0  9996
2 51134  53.2121 141.1771 0002741  16.1531 359.2240 15.73228551  3718
STARLINK-3363           
1 51135U 22005AH  22046.25001157 -.00040960  00000+0 -28864-3 0  9990
2 51135  53.2175 139.8242 0002368  25.5855 211.6051 15.73212030  5609
STARLINK-3253           
1 51136U 22005AJ  22043.57372980 -.00281505  00000+0 -12166-2 0  9997
2 51136  53.2206 151.2415 0001593  42.5671 317.5477 15.84870528  5207
STARLINK-3180           
1 51137U 22005AK  22045.83334491 -.00040009  00000+0 -28120-3 0  9994
2 51137  53.2179 141.8842 0002771  22.6373  15.8257 15.73260059  3700
STARLINK-3177           
1 51138U 22005AL  22046.25001157 -.00063705  00000+0 -45229-3 0  9999
2 51138  53.2184 139.8244 0002371  19.2083 218.5982 15.73228423  5603
STARLINK-3172           
1 51139U 22005AM  22046.25001157 -.00019354  00000+0 -13367-3 0  9999
2 51139  53.2181 139.8189 0002426  19.5226 221.4369 15.73215799  5606
STARLINK-3175           
1 51140U 22005AN  22045.83334491 -.00036671  00000+0 -25752-3 0  9996
2 51140  53.2175 141.8849 0002746  16.6677  21.2432 15.73237325  3705
STARLINK-3179           
1 51141U 22005AP  22046.25001157  .00066688  00000+0  47654-3 0  9998
2 51141  53.2182 139.8144 0002396  14.8810 227.3286 15.73162240  5609
STARLINK-3369           
1 51142U 22005AQ  22045.83334491 -.00008356  00000+0 -55103-4 0  9991
2 51142  53.2167 141.8872 0002647  18.7866  18.4936 15.73220555  3701
STARLINK-3184           
1 51143U 22005AR  22046.25001157 -.00486240  00000+0 -37330-2 0  9991
2 51143  53.2171 139.7908 0002232   6.1725 237.6769 15.72761834  5607
STARLINK-3185           
1 51144U 22005AS  22046.25001157 -.00051463  00000+0 -36411-3 0  9997
2 51144  53.2167 139.8172 0002535  16.9929 224.6016 15.73220018  5604
STARLINK-3365           
1 51145U 22005AT  22046.25001157 -.00661197  00000+0 -51278-2 0  9996
2 51145  53.2174 139.7874 0002508  17.6143 226.8716 15.73010611  5604
STARLINK-3354           
1 51146U 22005AU  22045.83334491 -.00056252  00000+0 -39758-3 0  9990
2 51146  53.2165 141.8833 0002710  18.4187  20.6331 15.73280443  3700
STARLINK-3352           
1 51147U 22005AV  22045.83334491  .00030288  00000+0  21955-3 0  9990
2 51147  53.2173 141.8743 0002461  15.6343  26.6398 15.73186733  3702
STARLINK-3359           
1 51148U 22005AW  22046.25001157 -.00640194  00000+0 -49310-2 0  9997
2 51148  53.2173 139.7887 0002180  21.1545 224.0073 15.73114360  5604
STARLINK-3360           
1 51149U 22005AX  22046.25001157 -.00591161  00000+0 -45107-2 0  9997
2 51149  53.2172 139.7888 0002285  19.3555 226.4603 15.73196051  5603
STARLINK-3357           
1 51150U 22005AY  22046.25001157 -.00028663  00000+0 -20032-3 0  9992
2 51150  53.2175 139.8151 0002519  22.5389 220.3123 15.73215732  5601
STARLINK-3361           
1 51151U 22005AZ  22045.83334491  .00037739  00000+0  27234-3 0  9999
2 51151  53.2164 141.8616 0002623   9.1669  36.8648 15.73177473  3707
STARLINK-3364           
1 51152U 22005BA  22046.25001157 -.00274680  00000+0 -20278-2 0  9997
2 51152  53.2169 139.7900 0002474  14.5761 231.9799 15.73072489  5609
L-SAR 01A               
1 51284U 22007A   22046.25668731  .00002449  00000+0  26997-3 0  9997
2 51284  97.8078  55.3696 0001859  90.2352 269.9047 14.88427120  3017
CZ-4C R/B               
1 51285U 22007B   22045.77239235  .00004669  00000+0  20516-3 0  9994
2 51285  97.8450  55.8331 0123114 323.8754  35.4205 15.15818769  2995
CZ-4C DEB               
1 51286U 22007C   22040.96708496  .00523041  00000+0  79913-1 0  9994
2 51286  97.7881  49.4853 0112876 160.7850 199.7665 14.67057094  2197
ASCENT                  
1 51287U 21118E   22037.20605106 -.00000057  00000+0  00000+0 0  9991
2 51287   0.1323 113.8875 0002651 136.3445 187.7236  1.01234817   200
ELSA-D CLIENT           
1 51288U 21022AQ  22046.17878437  .00002467  00000+0  16793-3 0  9997
2 51288  97.5403 308.6076 0018101 191.0353 169.0480 15.07098991  3142
GASPACS                 
1 51439U 98067TB  22045.77510962  .00065468  00000+0  10395-2 0  9990
2 51439  51.6391 222.5827 0006349 141.1774 218.9673 15.52708609  3028
1998-067TC              
1 51440U 98067TC  22045.77003337  .00089384  00000+0  13676-2 0  9993
2 51440  51.6388 222.5494 0005719 144.0116 216.1260 15.53601050  3089
1998-067TD              
1 51441U 98067TD  22045.78239921  .00023559  00000+0  40098-3 0  9996
2 51441  51.6396 222.6313 0007789 146.1393 214.0096 15.51255877  3072
